{
 "type": "FeatureCollection",
 "features": [
  {
   "type": "Feature",
   "properties": {
    "name": "Langtang",
    "area_km2": 80.8,
    "elev_min_m": 3048,
    "elev_max_m": 7188,
    "nisar_paths": [
     48,
     98
    ],
    "note": "Langtang Lirung massif; glacier monitoring"
   },
   "geometry": {
    "type": "Polygon",
    "coordinates": [
     [
      [
       85.46683434336315,
       28.324709534140283
      ],
      [
       85.45910958140026,
       28.27770429941266
      ],
      [
       85.47267083017955,
       28.253664665263376
      ],
      [
       85.50734379401987,
       28.245345485689977
      ],
      [
       85.5358395825941,
       28.24474059790628
      ],
      [
       85.55884220710581,
       28.24988203471338
      ],
      [
       85.56485035529917,
       28.272864249930198
      ],
      [
       85.56193211189097,
       28.2894930246922
      ],
      [
       85.55918552985972,
       28.307177143980763
      ],
      [
       85.54854252448862,
       28.31684926479861
      ],
      [
       85.52468159309214,
       28.32833376569179
      ],
      [
       85.5061421643812,
       28.329693690212682
      ],
      [
       85.46683434336315,
       28.324709534140283
      ]
     ]
    ]
   }
  },
  {
   "type": "Feature",
   "properties": {
    "name": "Lhende Khola",
    "area_km2": 253,
    "nisar_paths": [
     48,
     98
    ],
    "note": "Reported source zone of the 26 Aug 2026 collapse"
   },
   "geometry": {
    "type": "Polygon",
    "coordinates": [
     [
      [
       85.44,
       28.34
      ],
      [
       85.62,
       28.34
      ],
      [
       85.62,
       28.47
      ],
      [
       85.44,
       28.47
      ],
      [
       85.44,
       28.34
      ]
     ]
    ]
   }
  }
 ]
}